"locator_domain","page_url","location_name","street_address","city","state","zip","country_code","store_number","phone","location_type","latitude","longitude","hours_of_operation"
"https://ladybirdacademy.com/","https://www.ladybirdacademy.com/locations/oakleaf","Oakleaf","1001 Oakleaf Plantation Pkwy","Orange Park","FL","32065","<MISSING>","<MISSING>","904-855-5723","<MISSING>","<MISSING>","<MISSING>","6:30am - 6:30pm"
"https://ladybirdacademy.com/","https://www.ladybirdacademy.com/locations/st-johns","St Johns","380 Islesbrook Pkwy","St Johns","FL","32259","<MISSING>","<MISSING>","904-322-7327","<MISSING>","<MISSING>","<MISSING>","6:30am - 6:30pm"
"https://ladybirdacademy.com/","https://www.ladybirdacademy.com/locations/rock-springs","Rock Springs","1151 Rock Springs Road","Apopka","FL","32712","<MISSING>","<MISSING>","407-814-3911","<MISSING>","<MISSING>","<MISSING>","6:30AM - 6:30PM"
"https://ladybirdacademy.com/","https://www.ladybirdacademy.com/locations/debary","Debary","204 Saxon Blvd","Debary","FL","32713","<MISSING>","<MISSING>","(386) 218-6925","<MISSING>","<MISSING>","<MISSING>","6:30AM - 6:30PM"
"https://ladybirdacademy.com/","https://www.ladybirdacademy.com/locations/lake-mary","Lake Mary","185 Timacuan Blvd","Lake Mary","FL","32746","<MISSING>","<MISSING>","(407) 268-9081","<MISSING>","<MISSING>","<MISSING>","6:30AM - 6:30PM"
"https://ladybirdacademy.com/","https://www.ladybirdacademy.com/locations/oviedo","Oviedo","1650 Alafaya Trail","Oviedo","FL","32765","<MISSING>","<MISSING>","(407) 542-7482","<MISSING>","<MISSING>","<MISSING>","6:30AM - 6:30PM"
"https://ladybirdacademy.com/","https://www.ladybirdacademy.com/locations/winter-springs","Winter Springs","282 State Road 434 West","Oviedo","FL","32765","<MISSING>","<MISSING>","(407) 278-0929","<MISSING>","<MISSING>","<MISSING>","6:30AM - 6:30PM"
"https://ladybirdacademy.com/","https://www.ladybirdacademy.com/locations/lake-forest","Lake Forest","700 Lake Forest Blvd","Sanford","FL","32771","<MISSING>","<MISSING>","(407) 324-1315","<MISSING>","<MISSING>","<MISSING>","6:30AM - 6:30PM"
"https://ladybirdacademy.com/","https://www.ladybirdacademy.com/locations/wekiva-springs","Wekiva Springs","470 E. Lake Brantley Drive","Longwood","FL","32779","<MISSING>","<MISSING>","407-960-1907","<MISSING>","<MISSING>","<MISSING>","6:30am - 6:30pm"
"https://ladybirdacademy.com/","https://www.ladybirdacademy.com/locations/Dr-Phillips","Dr Phillips","6809 Daisy Street","Orlando","FL","32819","<MISSING>","<MISSING>","(407) 412-6908","<MISSING>","<MISSING>","<MISSING>","6:30AM - 6:30PM"
"https://ladybirdacademy.com/","https://www.ladybirdacademy.com/locations/wyndham-lakes","Wyndham Lakes","14840 Wyndham Lakes Blvd","Orlando","FL","32824","<MISSING>","<MISSING>","(407) 852-9696","<MISSING>","<MISSING>","<MISSING>","6:30AM - 6:30PM"
"https://ladybirdacademy.com/","https://www.ladybirdacademy.com/locations/lake-underhill","Lake Underhill","10955 Lake Underhill Road","Orlando","FL","32825","<MISSING>","<MISSING>","(407) 271-8149","<MISSING>","<MISSING>","<MISSING>","6:30AM - 6:30PM"
"https://ladybirdacademy.com/","https://www.ladybirdacademy.com/locations/avalon-park","Avalon Park","357 S. Avalon Park Blvd","Orlando","FL","32828","<MISSING>","<MISSING>","(407) 380-5800","<MISSING>","<MISSING>","<MISSING>","6:30AM - 6:30PM"
"https://ladybirdacademy.com/","https://www.ladybirdacademy.com/locations/lake-nona","Lake Nona","10485 Moss Park Road","Orlando","FL","32832","<MISSING>","<MISSING>","(407) 273-4331","<MISSING>","<MISSING>","<MISSING>","6:30AM - 6:30PM"
"https://ladybirdacademy.com/","https://www.ladybirdacademy.com/locations/hunters-creek","Hunters Creek","3010 Hunter's Creek Blvd","Orlando","FL","32837","<MISSING>","<MISSING>","407-757-2514","<MISSING>","<MISSING>","<MISSING>","6:30am - 6:30pm"
"https://ladybirdacademy.com/","https://www.ladybirdacademy.com/locations/coral-springs","Coral Springs","5700 Creekside Drive","Coral Springs","FL","33067","<MISSING>","<MISSING>","(754) 229-8290","<MISSING>","<MISSING>","<MISSING>","6:30AM - 6:30PM"
"https://ladybirdacademy.com/","https://www.ladybirdacademy.com/locations/fish-hawk","Fish Hawk","16470 Hammock Crossing Drive","Lithia","FL","33547","<MISSING>","<MISSING>","813-548-0670","<MISSING>","<MISSING>","<MISSING>","6:00am - 6:30pm"
"https://ladybirdacademy.com/","https://www.ladybirdacademy.com/locations/clermont","Clermont","2400 E Highway 50","Clermont","FL","34711","<MISSING>","<MISSING>","352-708-5558","<MISSING>","<MISSING>","<MISSING>","6:30am - 6:30pm"
"https://ladybirdacademy.com/","https://www.ladybirdacademy.com/locations/ocoee","Ocoee","2060 West Road","Ocoee","FL","34761","<MISSING>","<MISSING>","407-654-6896","<MISSING>","<MISSING>","<MISSING>","6:30am - 6:30pm"
"https://ladybirdacademy.com/","https://www.ladybirdacademy.com/locations/st-cloud","St Cloud","3475 Progress Lane","St Cloud","FL","34769","<MISSING>","<MISSING>","407-979-4729","<MISSING>","<MISSING>","<MISSING>","6:30am - 6:30pm"
"https://ladybirdacademy.com/","https://www.ladybirdacademy.com/locations/wickham-park","Wickham Park","7324 Bentonshire Ave","Windermere","FL","34786","<MISSING>","<MISSING>","407-654-8267","<MISSING>","<MISSING>","<MISSING>","6:00am - 7:00PM"
"https://ladybirdacademy.com/","https://www.ladybirdacademy.com/locations/windermere","Windermere","12144 Chase Road","Windermere","FL","34786","<MISSING>","<MISSING>","(407) 654-7695","<MISSING>","<MISSING>","<MISSING>","6:00AM - 7:00PM"
"https://ladybirdacademy.com/","https://www.ladybirdacademy.com/locations/winter-garden","Winter Garden","1630 Avalon Road","Winter Garden","FL","34787","<MISSING>","<MISSING>","407-395-2181","<MISSING>","<MISSING>","<MISSING>","6:30am - 6:30pm"
"https://ladybirdacademy.com/","https://www.ladybirdacademy.com/locations/independence","Independence","1922 S. Independence Pkwy","McKinney","TX","75070","<MISSING>","<MISSING>","972-787.5020","<MISSING>","<MISSING>","<MISSING>","6:30am-6:30pm"
